{
  "type": "FeatureCollection",
  "metadata": {
    "version": "v0.5.4",
    "estado": "pendiente_geojson_cantonal_real",
    "motivo": "El archivo cantonesZonal5gr.geojson cargado contiene 5 polígonos provinciales y no polígonos cantonales.",
    "campos_minimos_requeridos": [
      "provincia",
      "canton",
      "codigo_dpa",
      "zona"
    ],
    "crs_requerido": "WGS84 / EPSG:4326",
    "accion": "Cargar GeoJSON cantonal real de la Zona 5 para activar la capa."
  },
  "features": []
}