{"type":"FeatureCollection","metadata":{"version":"v0.5.11","estado":"muestra_tecnica_operativa_activa","fuente":"Capa demostrativa para validar puntos, líneas y polígonos antes de conectar Kobo, PDF firmados o ArcGIS Online.","advertencia":"No usar como dato oficial. Reemplazar por elementos reales extraídos de Kobo/geopoint/geotrace/geoshape, planes firmados o geodatabase institucional.","geometrias_soportadas":["Point","LineString","Polygon","MultiPoint","MultiLineString","MultiPolygon"],"uso":"Sitios críticos, infraestructura expuesta, rutas, tramos, zonas inundables, acciones priorizadas y evidencias de monitoreo.","descripcion":"Elementos demo: 7 geometrías de prueba más un punto de ficha por cantón para validar filtrado territorial."},"features":[{"type":"Feature","geometry":{"type":"Point","coordinates":[-79.593,-2.134]},"properties":{"id_elemento":"DEMO_GUAYAS_MILAGRO_PTO_001","provincia":"Guayas","canton":"Milagro","categoria_id":"SITIO_CRITICO","categoria":"Sitio crítico","subcategoria":"Inundación recurrente","componente":"Análisis","amenaza":"Inundación por acumulación de aguas lluvias","semaforo":"ROJO","prioridad":"Alta","nombre":"Punto crítico urbano demostrativo","descripcion":"Ejemplo de punto tipo Kobo geopoint para validar ficha técnica, semaforización y selección en mapa.","accion_requerida":"Verificar drenaje, limpieza preventiva y priorizar inspección antes del periodo lluvioso.","responsable":"GAD Municipal / Obras Públicas","estado":"Pendiente de verificación oficial","fuente":"Muestra técnica v0.5.11 · no oficial"}},{"type":"Feature","geometry":{"type":"Point","coordinates":[-79.487,-1.802]},"properties":{"id_elemento":"DEMO_LOSRIOS_BABAHOYO_INF_001","provincia":"Los Ríos","canton":"Babahoyo","categoria_id":"INFRAESTRUCTURA","categoria":"Infraestructura expuesta","subcategoria":"Equipamiento esencial","componente":"Análisis","amenaza":"Inundación / aislamiento funcional","semaforo":"AMARILLO","prioridad":"Media","nombre":"Infraestructura esencial demostrativa","descripcion":"Ejemplo de infraestructura expuesta para validar popup y panel lateral.","accion_requerida":"Confirmar cota, accesos, continuidad operativa y medidas de protección.","responsable":"GAD / Institución sectorial","estado":"Pendiente de validación","fuente":"Muestra técnica v0.5.11 · no oficial"}},{"type":"Feature","geometry":{"type":"LineString","coordinates":[[-79.56,-1.835],[-79.535,-1.815],[-79.51,-1.795]]},"properties":{"id_elemento":"DEMO_LOSRIOS_BABAHOYO_RUTA_001","provincia":"Los Ríos","canton":"Babahoyo","categoria_id":"RESPUESTA","categoria":"Respuesta operativa","subcategoria":"Ruta de evacuación","componente":"Respuesta","amenaza":"Inundación fluvial","semaforo":"VERDE","prioridad":"Operativa","nombre":"Ruta de evacuación demostrativa","descripcion":"Ejemplo de línea tipo Kobo geotrace para rutas, vías críticas o tramos afectados.","accion_requerida":"Verificar transitabilidad, señalización y puntos de encuentro asociados.","responsable":"GAD / CTE / Policía / Obras Públicas","estado":"Por verificar en campo","fuente":"Muestra técnica v0.5.11 · no oficial"}},{"type":"Feature","geometry":{"type":"LineString","coordinates":[[-79.075,-1.595],[-79.055,-1.615],[-79.034,-1.635],[-79.012,-1.65]]},"properties":{"id_elemento":"DEMO_BOLIVAR_GUARANDA_TRAMO_001","provincia":"Bolívar","canton":"Guaranda","categoria_id":"SITIO_CRITICO","categoria":"Sitio crítico","subcategoria":"Tramo con erosión o inestabilidad","componente":"Análisis","amenaza":"Erosión hídrica / movimientos en masa","semaforo":"ROJO","prioridad":"Alta","nombre":"Tramo crítico demostrativo","descripcion":"Ejemplo de línea para registrar cauces, escarpes, vías afectadas o tramos con socavación.","accion_requerida":"Inspección técnica, priorización de estabilización y monitoreo visual.","responsable":"GAD / MTOP / Equipo técnico CZ5","estado":"Pendiente de inspección","fuente":"Muestra técnica v0.5.11 · no oficial"}},{"type":"Feature","geometry":{"type":"Polygon","coordinates":[[[-79.64,-2.175],[-79.605,-2.175],[-79.6,-2.145],[-79.635,-2.135],[-79.66,-2.155],[-79.64,-2.175]]]},"properties":{"id_elemento":"DEMO_GUAYAS_MILAGRO_POL_001","provincia":"Guayas","canton":"Milagro","categoria_id":"ACCION_PRIORIZADA","categoria":"Acción priorizada","subcategoria":"Zona de limpieza y drenaje","componente":"Fortalecimiento","amenaza":"Inundación urbana","semaforo":"AMARILLO","prioridad":"Media-alta","nombre":"Zona priorizada demostrativa","descripcion":"Ejemplo de polígono tipo Kobo geoshape para sectores expuestos o áreas de intervención.","accion_requerida":"Definir responsable, plazo, evidencia y seguimiento mensual de la intervención.","responsable":"GAD Municipal / Dirección de Obras Públicas","estado":"Pendiente de programación","fuente":"Muestra técnica v0.5.11 · no oficial"}},{"type":"Feature","geometry":{"type":"Polygon","coordinates":[[[-80.87,-2.23],[-80.84,-2.235],[-80.828,-2.26],[-80.852,-2.285],[-80.885,-2.265],[-80.87,-2.23]]]},"properties":{"id_elemento":"DEMO_SANTAELENA_SE_POL_001","provincia":"Santa Elena","canton":"Santa Elena","categoria_id":"MONITOREO","categoria":"Monitoreo y evidencias","subcategoria":"Área de seguimiento","componente":"Monitoreo","amenaza":"Escorrentía / afectación vial","semaforo":"AMARILLO","prioridad":"Seguimiento","nombre":"Área de monitoreo demostrativa","descripcion":"Ejemplo de polígono para seguimiento mensual, evidencias o alertas territoriales.","accion_requerida":"Registrar evidencia mensual, responsable y estado de avance.","responsable":"GAD / CZ5","estado":"Pendiente de evidencia","fuente":"Muestra técnica v0.5.11 · no oficial"}},{"type":"Feature","geometry":{"type":"Point","coordinates":[-90.312,-0.745]},"properties":{"id_elemento":"DEMO_GALAPAGOS_SC_AT_001","provincia":"Galápagos","canton":"San Cristóbal","categoria_id":"RESPUESTA","categoria":"Respuesta operativa","subcategoria":"Punto seguro / alojamiento","componente":"Respuesta","amenaza":"Aislamiento logístico / evento hidrometeorológico","semaforo":"VERDE","prioridad":"Operativa","nombre":"Punto seguro demostrativo insular","descripcion":"Ejemplo de punto para validar respuesta operativa en territorio insular.","accion_requerida":"Verificar capacidad, accesibilidad, responsable y abastecimiento.","responsable":"GAD / COE Cantonal / CZ5","estado":"Por validar","fuente":"Muestra técnica v0.5.11 · no oficial"}},{"type":"Feature","geometry":{"type":"Point","coordinates":[-79.06758077994026,-1.4387389215272979]},"properties":{"id_elemento":"DEMO_CANTON_0201_FICHA","provincia":"Bolívar","canton":"Guaranda","codigo_dpa":"0201","categoria_id":"MONITOREO","categoria":"Ficha cantonal demo","subcategoria":"Punto de lectura territorial","componente":"Monitoreo","amenaza":"Inundación localizada, Movimiento en masa","semaforo":"ROJO","prioridad":"Demo funcional","nombre":"Ficha cantonal demostrativa · Guaranda","descripcion":"Punto generado para probar que Elementos operativos se filtre por cantón/provincia seleccionado. No reemplaza puntos reales de Kobo.","accion_requerida":"Reemplazar con geopoint/geotrace/geoshape reales desde Kobo, PDF o ArcGIS Online.","responsable":"CZ5 / GAD · pendiente de validación","estado":"Demo · pendiente de carga real","fuente":"Demo funcional v0.5.11"}},{"type":"Feature","geometry":{"type":"Point","coordinates":[-79.13382031494989,-2.033094468206378]},"properties":{"id_elemento":"DEMO_CANTON_0202_FICHA","provincia":"Bolívar","canton":"Chillanes","codigo_dpa":"0202","categoria_id":"MONITOREO","categoria":"Ficha cantonal demo","subcategoria":"Punto de lectura territorial","componente":"Monitoreo","amenaza":"Inundación localizada, Movimiento en masa","semaforo":"AMARILLO","prioridad":"Demo funcional","nombre":"Ficha cantonal demostrativa · Chillanes","descripcion":"Punto generado para probar que Elementos operativos se filtre por cantón/provincia seleccionado. No reemplaza puntos reales de Kobo.","accion_requerida":"Reemplazar con geopoint/geotrace/geoshape reales desde Kobo, PDF o ArcGIS Online.","responsable":"CZ5 / GAD · pendiente de validación","estado":"Demo · pendiente de carga real","fuente":"Demo funcional v0.5.11"}},{"type":"Feature","geometry":{"type":"Point","coordinates":[-79.14784305629335,-1.6774067387398999]},"properties":{"id_elemento":"DEMO_CANTON_0203_FICHA","provincia":"Bolívar","canton":"Chimbo","codigo_dpa":"0203","categoria_id":"MONITOREO","categoria":"Ficha cantonal demo","subcategoria":"Punto de lectura territorial","componente":"Monitoreo","amenaza":"Inundación localizada, Movimiento en masa","semaforo":"VERDE","prioridad":"Demo funcional","nombre":"Ficha cantonal demostrativa · Chimbo","descripcion":"Punto generado para probar que Elementos operativos se filtre por cantón/provincia seleccionado. No reemplaza puntos reales de Kobo.","accion_requerida":"Reemplazar con geopoint/geotrace/geoshape reales desde Kobo, PDF o ArcGIS Online.","responsable":"CZ5 / GAD · pendiente de validación","estado":"Demo · pendiente de carga real","fuente":"Demo funcional v0.5.11"}},{"type":"Feature","geometry":{"type":"Point","coordinates":[-79.26634166800001,-1.4477921966668754]},"properties":{"id_elemento":"DEMO_CANTON_0204_FICHA","provincia":"Bolívar","canton":"Echeandía","codigo_dpa":"0204","categoria_id":"MONITOREO","categoria":"Ficha cantonal demo","subcategoria":"Punto de lectura territorial","componente":"Monitoreo","amenaza":"Inundación localizada, Movimiento en masa","semaforo":"ROJO","prioridad":"Demo funcional","nombre":"Ficha cantonal demostrativa · Echeandía","descripcion":"Punto generado para probar que Elementos operativos se filtre por cantón/provincia seleccionado. No reemplaza puntos reales de Kobo.","accion_requerida":"Reemplazar con geopoint/geotrace/geoshape reales desde Kobo, PDF o ArcGIS Online.","responsable":"CZ5 / GAD · pendiente de validación","estado":"Demo · pendiente de carga real","fuente":"Demo funcional v0.5.11"}},{"type":"Feature","geometry":{"type":"Point","coordinates":[-79.06258411647974,-1.8116713190204285]},"properties":{"id_elemento":"DEMO_CANTON_0205_FICHA","provincia":"Bolívar","canton":"San Miguel","codigo_dpa":"0205","categoria_id":"MONITOREO","categoria":"Ficha cantonal demo","subcategoria":"Punto de lectura territorial","componente":"Monitoreo","amenaza":"Inundación localizada, Movimiento en masa","semaforo":"AMARILLO","prioridad":"Demo funcional","nombre":"Ficha cantonal demostrativa · San Miguel","descripcion":"Punto generado para probar que Elementos operativos se filtre por cantón/provincia seleccionado. No reemplaza puntos reales de Kobo.","accion_requerida":"Reemplazar con geopoint/geotrace/geoshape reales desde Kobo, PDF o ArcGIS Online.","responsable":"CZ5 / GAD · pendiente de validación","estado":"Demo · pendiente de carga real","fuente":"Demo funcional v0.5.11"}},{"type":"Feature","geometry":{"type":"Point","coordinates":[-79.22611937175981,-1.5966323381860965]},"properties":{"id_elemento":"DEMO_CANTON_0206_FICHA","provincia":"Bolívar","canton":"Caluma","codigo_dpa":"0206","categoria_id":"MONITOREO","categoria":"Ficha cantonal demo","subcategoria":"Punto de lectura territorial","componente":"Monitoreo","amenaza":"Inundación localizada, Movimiento en masa","semaforo":"VERDE","prioridad":"Demo funcional","nombre":"Ficha cantonal demostrativa · Caluma","descripcion":"Punto generado para probar que Elementos operativos se filtre por cantón/provincia seleccionado. No reemplaza puntos reales de Kobo.","accion_requerida":"Reemplazar con geopoint/geotrace/geoshape reales desde Kobo, PDF o ArcGIS Online.","responsable":"CZ5 / GAD · pendiente de validación","estado":"Demo · pendiente de carga real","fuente":"Demo funcional v0.5.11"}},{"type":"Feature","geometry":{"type":"Point","coordinates":[-79.29666343964004,-1.281588712878579]},"properties":{"id_elemento":"DEMO_CANTON_0207_FICHA","provincia":"Bolívar","canton":"Las Naves","codigo_dpa":"0207","categoria_id":"MONITOREO","categoria":"Ficha cantonal demo","subcategoria":"Punto de lectura territorial","componente":"Monitoreo","amenaza":"Inundación localizada, Movimiento en masa","semaforo":"ROJO","prioridad":"Demo funcional","nombre":"Ficha cantonal demostrativa · Las Naves","descripcion":"Punto generado para probar que Elementos operativos se filtre por cantón/provincia seleccionado. No reemplaza puntos reales de Kobo.","accion_requerida":"Reemplazar con geopoint/geotrace/geoshape reales desde Kobo, PDF o ArcGIS Online.","responsable":"CZ5 / GAD · pendiente de validación","estado":"Demo · pendiente de carga real","fuente":"Demo funcional v0.5.11"}},{"type":"Feature","geometry":{"type":"Point","coordinates":[-80.09008459122762,-2.5130575020080013]},"properties":{"id_elemento":"DEMO_CANTON_0901_FICHA","provincia":"Guayas","canton":"Guayaquil","codigo_dpa":"0901","categoria_id":"MONITOREO","categoria":"Ficha cantonal demo","subcategoria":"Punto de lectura territorial","componente":"Monitoreo","amenaza":"Inundación urbana/rural, Drenaje insuficiente","semaforo":"AMARILLO","prioridad":"Demo funcional","nombre":"Ficha cantonal demostrativa · Guayaquil","descripcion":"Punto generado para probar que Elementos operativos se filtre por cantón/provincia seleccionado. No reemplaza puntos reales de Kobo.","accion_requerida":"Reemplazar con geopoint/geotrace/geoshape reales desde Kobo, PDF o ArcGIS Online.","responsable":"CZ5 / GAD · pendiente de validación","estado":"Demo · pendiente de carga real","fuente":"Demo funcional v0.5.11"}},{"type":"Feature","geometry":{"type":"Point","coordinates":[-79.54700141286608,-1.9546014208039102]},"properties":{"id_elemento":"DEMO_CANTON_0902_FICHA","provincia":"Guayas","canton":"Alfredo Baquerizo Moreno","codigo_dpa":"0902","categoria_id":"MONITOREO","categoria":"Ficha cantonal demo","subcategoria":"Punto de lectura territorial","componente":"Monitoreo","amenaza":"Inundación urbana/rural, Drenaje insuficiente","semaforo":"VERDE","prioridad":"Demo funcional","nombre":"Ficha cantonal demostrativa · Alfredo Baquerizo Moreno","descripcion":"Punto generado para probar que Elementos operativos se filtre por cantón/provincia seleccionado. No reemplaza puntos reales de Kobo.","accion_requerida":"Reemplazar con geopoint/geotrace/geoshape reales desde Kobo, PDF o ArcGIS Online.","responsable":"CZ5 / GAD · pendiente de validación","estado":"Demo · pendiente de carga real","fuente":"Demo funcional v0.5.11"}},{"type":"Feature","geometry":{"type":"Point","coordinates":[-79.72500789689778,-2.889254676919336]},"properties":{"id_elemento":"DEMO_CANTON_0903_FICHA","provincia":"Guayas","canton":"Balao","codigo_dpa":"0903","categoria_id":"MONITOREO","categoria":"Ficha cantonal demo","subcategoria":"Punto de lectura territorial","componente":"Monitoreo","amenaza":"Inundación/escorrentía, Afectación vial","semaforo":"ROJO","prioridad":"Demo funcional","nombre":"Ficha cantonal demostrativa · Balao","descripcion":"Punto generado para probar que Elementos operativos se filtre por cantón/provincia seleccionado. No reemplaza puntos reales de Kobo.","accion_requerida":"Reemplazar con geopoint/geotrace/geoshape reales desde Kobo, PDF o ArcGIS Online.","responsable":"CZ5 / GAD · pendiente de validación","estado":"Demo · pendiente de carga real","fuente":"Demo funcional v0.5.11"}},{"type":"Feature","geometry":{"type":"Point","coordinates":[-79.90180986922232,-1.301822544814416]},"properties":{"id_elemento":"DEMO_CANTON_0904_FICHA","provincia":"Guayas","canton":"Balzar","codigo_dpa":"0904","categoria_id":"MONITOREO","categoria":"Ficha cantonal demo","subcategoria":"Punto de lectura territorial","componente":"Monitoreo","amenaza":"Inundación urbana/rural, Drenaje insuficiente","semaforo":"AMARILLO","prioridad":"Demo funcional","nombre":"Ficha cantonal demostrativa · Balzar","descripcion":"Punto generado para probar que Elementos operativos se filtre por cantón/provincia seleccionado. No reemplaza puntos reales de Kobo.","accion_requerida":"Reemplazar con geopoint/geotrace/geoshape reales desde Kobo, PDF o ArcGIS Online.","responsable":"CZ5 / GAD · pendiente de validación","estado":"Demo · pendiente de carga real","fuente":"Demo funcional v0.5.11"}},{"type":"Feature","geometry":{"type":"Point","coordinates":[-80.07561469062965,-1.521789785058476]},"properties":{"id_elemento":"DEMO_CANTON_0905_FICHA","provincia":"Guayas","canton":"Colimes","codigo_dpa":"0905","categoria_id":"MONITOREO","categoria":"Ficha cantonal demo","subcategoria":"Punto de lectura territorial","componente":"Monitoreo","amenaza":"Inundación urbana/rural, Drenaje insuficiente","semaforo":"VERDE","prioridad":"Demo funcional","nombre":"Ficha cantonal demostrativa · Colimes","descripcion":"Punto generado para probar que Elementos operativos se filtre por cantón/provincia seleccionado. No reemplaza puntos reales de Kobo.","accion_requerida":"Reemplazar con geopoint/geotrace/geoshape reales desde Kobo, PDF o ArcGIS Online.","responsable":"CZ5 / GAD · pendiente de validación","estado":"Demo · pendiente de carga real","fuente":"Demo funcional v0.5.11"}},{"type":"Feature","geometry":{"type":"Point","coordinates":[-79.95565513800429,-1.9197101319280905]},"properties":{"id_elemento":"DEMO_CANTON_0906_FICHA","provincia":"Guayas","canton":"Daule","codigo_dpa":"0906","categoria_id":"MONITOREO","categoria":"Ficha cantonal demo","subcategoria":"Punto de lectura territorial","componente":"Monitoreo","amenaza":"Inundación urbana/rural, Drenaje insuficiente","semaforo":"ROJO","prioridad":"Demo funcional","nombre":"Ficha cantonal demostrativa · Daule","descripcion":"Punto generado para probar que Elementos operativos se filtre por cantón/provincia seleccionado. No reemplaza puntos reales de Kobo.","accion_requerida":"Reemplazar con geopoint/geotrace/geoshape reales desde Kobo, PDF o ArcGIS Online.","responsable":"CZ5 / GAD · pendiente de validación","estado":"Demo · pendiente de carga real","fuente":"Demo funcional v0.5.11"}},{"type":"Feature","geometry":{"type":"Point","coordinates":[-79.77906914766177,-2.2168594719966483]},"properties":{"id_elemento":"DEMO_CANTON_0907_FICHA","provincia":"Guayas","canton":"Duran","codigo_dpa":"0907","categoria_id":"MONITOREO","categoria":"Ficha cantonal demo","subcategoria":"Punto de lectura territorial","componente":"Monitoreo","amenaza":"Inundación urbana/rural, Drenaje insuficiente","semaforo":"AMARILLO","prioridad":"Demo funcional","nombre":"Ficha cantonal demostrativa · Duran","descripcion":"Punto generado para probar que Elementos operativos se filtre por cantón/provincia seleccionado. No reemplaza puntos reales de Kobo.","accion_requerida":"Reemplazar con geopoint/geotrace/geoshape reales desde Kobo, PDF o ArcGIS Online.","responsable":"CZ5 / GAD · pendiente de validación","estado":"Demo · pendiente de carga real","fuente":"Demo funcional v0.5.11"}},{"type":"Feature","geometry":{"type":"Point","coordinates":[-79.67173080184742,-0.9813306356542177]},"properties":{"id_elemento":"DEMO_CANTON_0908_FICHA","provincia":"Guayas","canton":"Empalme","codigo_dpa":"0908","categoria_id":"MONITOREO","categoria":"Ficha cantonal demo","subcategoria":"Punto de lectura territorial","componente":"Monitoreo","amenaza":"Inundación urbana/rural, Drenaje insuficiente","semaforo":"VERDE","prioridad":"Demo funcional","nombre":"Ficha cantonal demostrativa · Empalme","descripcion":"Punto generado para probar que Elementos operativos se filtre por cantón/provincia seleccionado. No reemplaza puntos reales de Kobo.","accion_requerida":"Reemplazar con geopoint/geotrace/geoshape reales desde Kobo, PDF o ArcGIS Online.","responsable":"CZ5 / GAD · pendiente de validación","estado":"Demo · pendiente de carga real","fuente":"Demo funcional v0.5.11"}},{"type":"Feature","geometry":{"type":"Point","coordinates":[-79.38135801882792,-2.2917775931878284]},"properties":{"id_elemento":"DEMO_CANTON_0909_FICHA","provincia":"Guayas","canton":"El Triunfo","codigo_dpa":"0909","categoria_id":"MONITOREO","categoria":"Ficha cantonal demo","subcategoria":"Punto de lectura territorial","componente":"Monitoreo","amenaza":"Inundación urbana/rural, Drenaje insuficiente","semaforo":"ROJO","prioridad":"Demo funcional","nombre":"Ficha cantonal demostrativa · El Triunfo","descripcion":"Punto generado para probar que Elementos operativos se filtre por cantón/provincia seleccionado. No reemplaza puntos reales de Kobo.","accion_requerida":"Reemplazar con geopoint/geotrace/geoshape reales desde Kobo, PDF o ArcGIS Online.","responsable":"CZ5 / GAD · pendiente de validación","estado":"Demo · pendiente de carga real","fuente":"Demo funcional v0.5.11"}},{"type":"Feature","geometry":{"type":"Point","coordinates":[-79.56753951206449,-2.106210096264854]},"properties":{"id_elemento":"DEMO_CANTON_0910_FICHA","provincia":"Guayas","canton":"Milagro","codigo_dpa":"0910","categoria_id":"MONITOREO","categoria":"Ficha cantonal demo","subcategoria":"Punto de lectura territorial","componente":"Monitoreo","amenaza":"Inundación urbana/rural, Drenaje insuficiente","semaforo":"AMARILLO","prioridad":"Demo funcional","nombre":"Ficha cantonal demostrativa · Milagro","descripcion":"Punto generado para probar que Elementos operativos se filtre por cantón/provincia seleccionado. No reemplaza puntos reales de Kobo.","accion_requerida":"Reemplazar con geopoint/geotrace/geoshape reales desde Kobo, PDF o ArcGIS Online.","responsable":"CZ5 / GAD · pendiente de validación","estado":"Demo · pendiente de carga real","fuente":"Demo funcional v0.5.11"}},{"type":"Feature","geometry":{"type":"Point","coordinates":[-79.62256689683309,-2.57314333006586]},"properties":{"id_elemento":"DEMO_CANTON_0911_FICHA","provincia":"Guayas","canton":"Naranjal","codigo_dpa":"0911","categoria_id":"MONITOREO","categoria":"Ficha cantonal demo","subcategoria":"Punto de lectura territorial","componente":"Monitoreo","amenaza":"Inundación/escorrentía, Afectación vial","semaforo":"VERDE","prioridad":"Demo funcional","nombre":"Ficha cantonal demostrativa · Naranjal","descripcion":"Punto generado para probar que Elementos operativos se filtre por cantón/provincia seleccionado. No reemplaza puntos reales de Kobo.","accion_requerida":"Reemplazar con geopoint/geotrace/geoshape reales desde Kobo, PDF o ArcGIS Online.","responsable":"CZ5 / GAD · pendiente de validación","estado":"Demo · pendiente de carga real","fuente":"Demo funcional v0.5.11"}},{"type":"Feature","geometry":{"type":"Point","coordinates":[-79.38953030924687,-2.1575202009777223]},"properties":{"id_elemento":"DEMO_CANTON_0912_FICHA","provincia":"Guayas","canton":"Naranjito","codigo_dpa":"0912","categoria_id":"MONITOREO","categoria":"Ficha cantonal demo","subcategoria":"Punto de lectura territorial","componente":"Monitoreo","amenaza":"Inundación urbana/rural, Drenaje insuficiente","semaforo":"ROJO","prioridad":"Demo funcional","nombre":"Ficha cantonal demostrativa · Naranjito","descripcion":"Punto generado para probar que Elementos operativos se filtre por cantón/provincia seleccionado. No reemplaza puntos reales de Kobo.","accion_requerida":"Reemplazar con geopoint/geotrace/geoshape reales desde Kobo, PDF o ArcGIS Online.","responsable":"CZ5 / GAD · pendiente de validación","estado":"Demo · pendiente de carga real","fuente":"Demo funcional v0.5.11"}},{"type":"Feature","geometry":{"type":"Point","coordinates":[-79.93280431245731,-1.6309755932506569]},"properties":{"id_elemento":"DEMO_CANTON_0913_FICHA","provincia":"Guayas","canton":"Palestina","codigo_dpa":"0913","categoria_id":"MONITOREO","categoria":"Ficha cantonal demo","subcategoria":"Punto de lectura territorial","componente":"Monitoreo","amenaza":"Inundación urbana/rural, Drenaje insuficiente","semaforo":"AMARILLO","prioridad":"Demo funcional","nombre":"Ficha cantonal demostrativa · Palestina","descripcion":"Punto generado para probar que Elementos operativos se filtre por cantón/provincia seleccionado. No reemplaza puntos reales de Kobo.","accion_requerida":"Reemplazar con geopoint/geotrace/geoshape reales desde Kobo, PDF o ArcGIS Online.","responsable":"CZ5 / GAD · pendiente de validación","estado":"Demo · pendiente de carga real","fuente":"Demo funcional v0.5.11"}},{"type":"Feature","geometry":{"type":"Point","coordinates":[-80.28332727166625,-1.8687592822759669]},"properties":{"id_elemento":"DEMO_CANTON_0914_FICHA","provincia":"Guayas","canton":"Pedro Carbo","codigo_dpa":"0914","categoria_id":"MONITOREO","categoria":"Ficha cantonal demo","subcategoria":"Punto de lectura territorial","componente":"Monitoreo","amenaza":"Inundación urbana/rural, Drenaje insuficiente","semaforo":"VERDE","prioridad":"Demo funcional","nombre":"Ficha cantonal demostrativa · Pedro Carbo","descripcion":"Punto generado para probar que Elementos operativos se filtre por cantón/provincia seleccionado. No reemplaza puntos reales de Kobo.","accion_requerida":"Reemplazar con geopoint/geotrace/geoshape reales desde Kobo, PDF o ArcGIS Online.","responsable":"CZ5 / GAD · pendiente de validación","estado":"Demo · pendiente de carga real","fuente":"Demo funcional v0.5.11"}},{"type":"Feature","geometry":{"type":"Point","coordinates":[-79.7701327074048,-2.011409035810721]},"properties":{"id_elemento":"DEMO_CANTON_0916_FICHA","provincia":"Guayas","canton":"Samborondon","codigo_dpa":"0916","categoria_id":"MONITOREO","categoria":"Ficha cantonal demo","subcategoria":"Punto de lectura territorial","componente":"Monitoreo","amenaza":"Inundación urbana/rural, Drenaje insuficiente","semaforo":"AMARILLO","prioridad":"Demo funcional","nombre":"Ficha cantonal demostrativa · Samborondon","descripcion":"Punto generado para probar que Elementos operativos se filtre por cantón/provincia seleccionado. No reemplaza puntos reales de Kobo.","accion_requerida":"Reemplazar con geopoint/geotrace/geoshape reales desde Kobo, PDF o ArcGIS Online.","responsable":"CZ5 / GAD · pendiente de validación","estado":"Demo · pendiente de carga real","fuente":"Demo funcional v0.5.11"}},{"type":"Feature","geometry":{"type":"Point","coordinates":[-80.02975567905736,-1.7126665959275371]},"properties":{"id_elemento":"DEMO_CANTON_0918_FICHA","provincia":"Guayas","canton":"Santa Lucia","codigo_dpa":"0918","categoria_id":"MONITOREO","categoria":"Ficha cantonal demo","subcategoria":"Punto de lectura territorial","componente":"Monitoreo","amenaza":"Inundación urbana/rural, Drenaje insuficiente","semaforo":"ROJO","prioridad":"Demo funcional","nombre":"Ficha cantonal demostrativa · Santa Lucia","descripcion":"Punto generado para probar que Elementos operativos se filtre por cantón/provincia seleccionado. No reemplaza puntos reales de Kobo.","accion_requerida":"Reemplazar con geopoint/geotrace/geoshape reales desde Kobo, PDF o ArcGIS Online.","responsable":"CZ5 / GAD · pendiente de validación","estado":"Demo · pendiente de carga real","fuente":"Demo funcional v0.5.11"}},{"type":"Feature","geometry":{"type":"Point","coordinates":[-79.7885911865105,-1.7950386691620492]},"properties":{"id_elemento":"DEMO_CANTON_0919_FICHA","provincia":"Guayas","canton":"Salitre","codigo_dpa":"0919","categoria_id":"MONITOREO","categoria":"Ficha cantonal demo","subcategoria":"Punto de lectura territorial","componente":"Monitoreo","amenaza":"Inundación urbana/rural, Drenaje insuficiente","semaforo":"AMARILLO","prioridad":"Demo funcional","nombre":"Ficha cantonal demostrativa · Salitre","descripcion":"Punto generado para probar que Elementos operativos se filtre por cantón/provincia seleccionado. No reemplaza puntos reales de Kobo.","accion_requerida":"Reemplazar con geopoint/geotrace/geoshape reales desde Kobo, PDF o ArcGIS Online.","responsable":"CZ5 / GAD · pendiente de validación","estado":"Demo · pendiente de carga real","fuente":"Demo funcional v0.5.11"}},{"type":"Feature","geometry":{"type":"Point","coordinates":[-79.66571026253396,-2.118660979509652]},"properties":{"id_elemento":"DEMO_CANTON_0920_FICHA","provincia":"Guayas","canton":"San Jacinto De Yaguachi","codigo_dpa":"0920","categoria_id":"MONITOREO","categoria":"Ficha cantonal demo","subcategoria":"Punto de lectura territorial","componente":"Monitoreo","amenaza":"Inundación urbana/rural, Drenaje insuficiente","semaforo":"VERDE","prioridad":"Demo funcional","nombre":"Ficha cantonal demostrativa · San Jacinto De Yaguachi","descripcion":"Punto generado para probar que Elementos operativos se filtre por cantón/provincia seleccionado. No reemplaza puntos reales de Kobo.","accion_requerida":"Reemplazar con geopoint/geotrace/geoshape reales desde Kobo, PDF o ArcGIS Online.","responsable":"CZ5 / GAD · pendiente de validación","estado":"Demo · pendiente de carga real","fuente":"Demo funcional v0.5.11"}},{"type":"Feature","geometry":{"type":"Point","coordinates":[-80.43537901340946,-2.5903159207274333]},"properties":{"id_elemento":"DEMO_CANTON_0921_FICHA","provincia":"Guayas","canton":"Playas","codigo_dpa":"0921","categoria_id":"MONITOREO","categoria":"Ficha cantonal demo","subcategoria":"Punto de lectura territorial","componente":"Monitoreo","amenaza":"Inundación/escorrentía, Afectación vial","semaforo":"ROJO","prioridad":"Demo funcional","nombre":"Ficha cantonal demostrativa · Playas","descripcion":"Punto generado para probar que Elementos operativos se filtre por cantón/provincia seleccionado. No reemplaza puntos reales de Kobo.","accion_requerida":"Reemplazar con geopoint/geotrace/geoshape reales desde Kobo, PDF o ArcGIS Online.","responsable":"CZ5 / GAD · pendiente de validación","estado":"Demo · pendiente de carga real","fuente":"Demo funcional v0.5.11"}},{"type":"Feature","geometry":{"type":"Point","coordinates":[-79.39518846782849,-2.0423280274060343]},"properties":{"id_elemento":"DEMO_CANTON_0922_FICHA","provincia":"Guayas","canton":"Simón Bolívar","codigo_dpa":"0922","categoria_id":"MONITOREO","categoria":"Ficha cantonal demo","subcategoria":"Punto de lectura territorial","componente":"Monitoreo","amenaza":"Inundación urbana/rural, Drenaje insuficiente","semaforo":"AMARILLO","prioridad":"Demo funcional","nombre":"Ficha cantonal demostrativa · Simón Bolívar","descripcion":"Punto generado para probar que Elementos operativos se filtre por cantón/provincia seleccionado. No reemplaza puntos reales de Kobo.","accion_requerida":"Reemplazar con geopoint/geotrace/geoshape reales desde Kobo, PDF o ArcGIS Online.","responsable":"CZ5 / GAD · pendiente de validación","estado":"Demo · pendiente de carga real","fuente":"Demo funcional v0.5.11"}},{"type":"Feature","geometry":{"type":"Point","coordinates":[-79.38516970602467,-2.2387509664958785]},"properties":{"id_elemento":"DEMO_CANTON_0923_FICHA","provincia":"Guayas","canton":"Crnel. Marcelino Maridueña","codigo_dpa":"0923","categoria_id":"MONITOREO","categoria":"Ficha cantonal demo","subcategoria":"Punto de lectura territorial","componente":"Monitoreo","amenaza":"Inundación urbana/rural, Drenaje insuficiente","semaforo":"VERDE","prioridad":"Demo funcional","nombre":"Ficha cantonal demostrativa · Crnel. Marcelino Maridueña","descripcion":"Punto generado para probar que Elementos operativos se filtre por cantón/provincia seleccionado. No reemplaza puntos reales de Kobo.","accion_requerida":"Reemplazar con geopoint/geotrace/geoshape reales desde Kobo, PDF o ArcGIS Online.","responsable":"CZ5 / GAD · pendiente de validación","estado":"Demo · pendiente de carga real","fuente":"Demo funcional v0.5.11"}},{"type":"Feature","geometry":{"type":"Point","coordinates":[-80.08516030971171,-1.8345375776854964]},"properties":{"id_elemento":"DEMO_CANTON_0924_FICHA","provincia":"Guayas","canton":"Lomas De Sargentillo","codigo_dpa":"0924","categoria_id":"MONITOREO","categoria":"Ficha cantonal demo","subcategoria":"Punto de lectura territorial","componente":"Monitoreo","amenaza":"Inundación urbana/rural, Drenaje insuficiente","semaforo":"ROJO","prioridad":"Demo funcional","nombre":"Ficha cantonal demostrativa · Lomas De Sargentillo","descripcion":"Punto generado para probar que Elementos operativos se filtre por cantón/provincia seleccionado. No reemplaza puntos reales de Kobo.","accion_requerida":"Reemplazar con geopoint/geotrace/geoshape reales desde Kobo, PDF o ArcGIS Online.","responsable":"CZ5 / GAD · pendiente de validación","estado":"Demo · pendiente de carga real","fuente":"Demo funcional v0.5.11"}},{"type":"Feature","geometry":{"type":"Point","coordinates":[-80.05167115835278,-1.9647000685593592]},"properties":{"id_elemento":"DEMO_CANTON_0925_FICHA","provincia":"Guayas","canton":"Nobol","codigo_dpa":"0925","categoria_id":"MONITOREO","categoria":"Ficha cantonal demo","subcategoria":"Punto de lectura territorial","componente":"Monitoreo","amenaza":"Inundación urbana/rural, Drenaje insuficiente","semaforo":"AMARILLO","prioridad":"Demo funcional","nombre":"Ficha cantonal demostrativa · Nobol","descripcion":"Punto generado para probar que Elementos operativos se filtre por cantón/provincia seleccionado. No reemplaza puntos reales de Kobo.","accion_requerida":"Reemplazar con geopoint/geotrace/geoshape reales desde Kobo, PDF o ArcGIS Online.","responsable":"CZ5 / GAD · pendiente de validación","estado":"Demo · pendiente de carga real","fuente":"Demo funcional v0.5.11"}},{"type":"Feature","geometry":{"type":"Point","coordinates":[-79.19450674106798,-2.1424055866406246]},"properties":{"id_elemento":"DEMO_CANTON_0927_FICHA","provincia":"Guayas","canton":"Gnral. Antonio Elizalde","codigo_dpa":"0927","categoria_id":"MONITOREO","categoria":"Ficha cantonal demo","subcategoria":"Punto de lectura territorial","componente":"Monitoreo","amenaza":"Inundación urbana/rural, Drenaje insuficiente","semaforo":"ROJO","prioridad":"Demo funcional","nombre":"Ficha cantonal demostrativa · Gnral. Antonio Elizalde","descripcion":"Punto generado para probar que Elementos operativos se filtre por cantón/provincia seleccionado. No reemplaza puntos reales de Kobo.","accion_requerida":"Reemplazar con geopoint/geotrace/geoshape reales desde Kobo, PDF o ArcGIS Online.","responsable":"CZ5 / GAD · pendiente de validación","estado":"Demo · pendiente de carga real","fuente":"Demo funcional v0.5.11"}},{"type":"Feature","geometry":{"type":"Point","coordinates":[-80.16239793764787,-1.9231566098000819]},"properties":{"id_elemento":"DEMO_CANTON_0928_FICHA","provincia":"Guayas","canton":"Isidro Ayora","codigo_dpa":"0928","categoria_id":"MONITOREO","categoria":"Ficha cantonal demo","subcategoria":"Punto de lectura territorial","componente":"Monitoreo","amenaza":"Inundación urbana/rural, Drenaje insuficiente","semaforo":"AMARILLO","prioridad":"Demo funcional","nombre":"Ficha cantonal demostrativa · Isidro Ayora","descripcion":"Punto generado para probar que Elementos operativos se filtre por cantón/provincia seleccionado. No reemplaza puntos reales de Kobo.","accion_requerida":"Reemplazar con geopoint/geotrace/geoshape reales desde Kobo, PDF o ArcGIS Online.","responsable":"CZ5 / GAD · pendiente de validación","estado":"Demo · pendiente de carga real","fuente":"Demo funcional v0.5.11"}},{"type":"Feature","geometry":{"type":"Point","coordinates":[-79.43544023392394,-1.8762173794378882]},"properties":{"id_elemento":"DEMO_CANTON_1201_FICHA","provincia":"Los Ríos","canton":"Babahoyo","codigo_dpa":"1201","categoria_id":"MONITOREO","categoria":"Ficha cantonal demo","subcategoria":"Punto de lectura territorial","componente":"Monitoreo","amenaza":"Inundación fluvial, Anegamiento de zonas bajas","semaforo":"AMARILLO","prioridad":"Demo funcional","nombre":"Ficha cantonal demostrativa · Babahoyo","descripcion":"Punto generado para probar que Elementos operativos se filtre por cantón/provincia seleccionado. No reemplaza puntos reales de Kobo.","accion_requerida":"Reemplazar con geopoint/geotrace/geoshape reales desde Kobo, PDF o ArcGIS Online.","responsable":"CZ5 / GAD · pendiente de validación","estado":"Demo · pendiente de carga real","fuente":"Demo funcional v0.5.11"}},{"type":"Feature","geometry":{"type":"Point","coordinates":[-79.66424289236724,-1.6732746681899673]},"properties":{"id_elemento":"DEMO_CANTON_1202_FICHA","provincia":"Los Ríos","canton":"Baba","codigo_dpa":"1202","categoria_id":"MONITOREO","categoria":"Ficha cantonal demo","subcategoria":"Punto de lectura territorial","componente":"Monitoreo","amenaza":"Inundación fluvial, Anegamiento de zonas bajas","semaforo":"VERDE","prioridad":"Demo funcional","nombre":"Ficha cantonal demostrativa · Baba","descripcion":"Punto generado para probar que Elementos operativos se filtre por cantón/provincia seleccionado. No reemplaza puntos reales de Kobo.","accion_requerida":"Reemplazar con geopoint/geotrace/geoshape reales desde Kobo, PDF o ArcGIS Online.","responsable":"CZ5 / GAD · pendiente de validación","estado":"Demo · pendiente de carga real","fuente":"Demo funcional v0.5.11"}},{"type":"Feature","geometry":{"type":"Point","coordinates":[-79.33618032476133,-1.8016825314856428]},"properties":{"id_elemento":"DEMO_CANTON_1203_FICHA","provincia":"Los Ríos","canton":"Montalvo","codigo_dpa":"1203","categoria_id":"MONITOREO","categoria":"Ficha cantonal demo","subcategoria":"Punto de lectura territorial","componente":"Monitoreo","amenaza":"Inundación fluvial, Anegamiento de zonas bajas","semaforo":"ROJO","prioridad":"Demo funcional","nombre":"Ficha cantonal demostrativa · Montalvo","descripcion":"Punto generado para probar que Elementos operativos se filtre por cantón/provincia seleccionado. No reemplaza puntos reales de Kobo.","accion_requerida":"Reemplazar con geopoint/geotrace/geoshape reales desde Kobo, PDF o ArcGIS Online.","responsable":"CZ5 / GAD · pendiente de validación","estado":"Demo · pendiente de carga real","fuente":"Demo funcional v0.5.11"}},{"type":"Feature","geometry":{"type":"Point","coordinates":[-79.55996701053338,-1.5368110359934715]},"properties":{"id_elemento":"DEMO_CANTON_1204_FICHA","provincia":"Los Ríos","canton":"Puebloviejo","codigo_dpa":"1204","categoria_id":"MONITOREO","categoria":"Ficha cantonal demo","subcategoria":"Punto de lectura territorial","componente":"Monitoreo","amenaza":"Inundación fluvial, Anegamiento de zonas bajas","semaforo":"AMARILLO","prioridad":"Demo funcional","nombre":"Ficha cantonal demostrativa · Puebloviejo","descripcion":"Punto generado para probar que Elementos operativos se filtre por cantón/provincia seleccionado. No reemplaza puntos reales de Kobo.","accion_requerida":"Reemplazar con geopoint/geotrace/geoshape reales desde Kobo, PDF o ArcGIS Online.","responsable":"CZ5 / GAD · pendiente de validación","estado":"Demo · pendiente de carga real","fuente":"Demo funcional v0.5.11"}},{"type":"Feature","geometry":{"type":"Point","coordinates":[-79.49272137130578,-1.068355493165645]},"properties":{"id_elemento":"DEMO_CANTON_1205_FICHA","provincia":"Los Ríos","canton":"Quevedo","codigo_dpa":"1205","categoria_id":"MONITOREO","categoria":"Ficha cantonal demo","subcategoria":"Punto de lectura territorial","componente":"Monitoreo","amenaza":"Inundación fluvial, Anegamiento de zonas bajas","semaforo":"VERDE","prioridad":"Demo funcional","nombre":"Ficha cantonal demostrativa · Quevedo","descripcion":"Punto generado para probar que Elementos operativos se filtre por cantón/provincia seleccionado. No reemplaza puntos reales de Kobo.","accion_requerida":"Reemplazar con geopoint/geotrace/geoshape reales desde Kobo, PDF o ArcGIS Online.","responsable":"CZ5 / GAD · pendiente de validación","estado":"Demo · pendiente de carga real","fuente":"Demo funcional v0.5.11"}},{"type":"Feature","geometry":{"type":"Point","coordinates":[-79.3735228819454,-1.5670424113955037]},"properties":{"id_elemento":"DEMO_CANTON_1206_FICHA","provincia":"Los Ríos","canton":"Urdaneta","codigo_dpa":"1206","categoria_id":"MONITOREO","categoria":"Ficha cantonal demo","subcategoria":"Punto de lectura territorial","componente":"Monitoreo","amenaza":"Inundación fluvial, Anegamiento de zonas bajas","semaforo":"ROJO","prioridad":"Demo funcional","nombre":"Ficha cantonal demostrativa · Urdaneta","descripcion":"Punto generado para probar que Elementos operativos se filtre por cantón/provincia seleccionado. No reemplaza puntos reales de Kobo.","accion_requerida":"Reemplazar con geopoint/geotrace/geoshape reales desde Kobo, PDF o ArcGIS Online.","responsable":"CZ5 / GAD · pendiente de validación","estado":"Demo · pendiente de carga real","fuente":"Demo funcional v0.5.11"}},{"type":"Feature","geometry":{"type":"Point","coordinates":[-79.40918918755588,-1.3234481398503886]},"properties":{"id_elemento":"DEMO_CANTON_1207_FICHA","provincia":"Los Ríos","canton":"Ventanas","codigo_dpa":"1207","categoria_id":"MONITOREO","categoria":"Ficha cantonal demo","subcategoria":"Punto de lectura territorial","componente":"Monitoreo","amenaza":"Inundación fluvial, Anegamiento de zonas bajas","semaforo":"AMARILLO","prioridad":"Demo funcional","nombre":"Ficha cantonal demostrativa · Ventanas","descripcion":"Punto generado para probar que Elementos operativos se filtre por cantón/provincia seleccionado. No reemplaza puntos reales de Kobo.","accion_requerida":"Reemplazar con geopoint/geotrace/geoshape reales desde Kobo, PDF o ArcGIS Online.","responsable":"CZ5 / GAD · pendiente de validación","estado":"Demo · pendiente de carga real","fuente":"Demo funcional v0.5.11"}},{"type":"Feature","geometry":{"type":"Point","coordinates":[-79.6920147352161,-1.522963833337183]},"properties":{"id_elemento":"DEMO_CANTON_1208_FICHA","provincia":"Los Ríos","canton":"Vinces","codigo_dpa":"1208","categoria_id":"MONITOREO","categoria":"Ficha cantonal demo","subcategoria":"Punto de lectura territorial","componente":"Monitoreo","amenaza":"Inundación fluvial, Anegamiento de zonas bajas","semaforo":"VERDE","prioridad":"Demo funcional","nombre":"Ficha cantonal demostrativa · Vinces","descripcion":"Punto generado para probar que Elementos operativos se filtre por cantón/provincia seleccionado. No reemplaza puntos reales de Kobo.","accion_requerida":"Reemplazar con geopoint/geotrace/geoshape reales desde Kobo, PDF o ArcGIS Online.","responsable":"CZ5 / GAD · pendiente de validación","estado":"Demo · pendiente de carga real","fuente":"Demo funcional v0.5.11"}},{"type":"Feature","geometry":{"type":"Point","coordinates":[-79.71371364564115,-1.3333733595658117]},"properties":{"id_elemento":"DEMO_CANTON_1209_FICHA","provincia":"Los Ríos","canton":"Palenque","codigo_dpa":"1209","categoria_id":"MONITOREO","categoria":"Ficha cantonal demo","subcategoria":"Punto de lectura territorial","componente":"Monitoreo","amenaza":"Inundación fluvial, Anegamiento de zonas bajas","semaforo":"ROJO","prioridad":"Demo funcional","nombre":"Ficha cantonal demostrativa · Palenque","descripcion":"Punto generado para probar que Elementos operativos se filtre por cantón/provincia seleccionado. No reemplaza puntos reales de Kobo.","accion_requerida":"Reemplazar con geopoint/geotrace/geoshape reales desde Kobo, PDF o ArcGIS Online.","responsable":"CZ5 / GAD · pendiente de validación","estado":"Demo · pendiente de carga real","fuente":"Demo funcional v0.5.11"}},{"type":"Feature","geometry":{"type":"Point","coordinates":[-79.47742478671842,-0.7499748563550617]},"properties":{"id_elemento":"DEMO_CANTON_1210_FICHA","provincia":"Los Ríos","canton":"Buena Fe","codigo_dpa":"1210","categoria_id":"MONITOREO","categoria":"Ficha cantonal demo","subcategoria":"Punto de lectura territorial","componente":"Monitoreo","amenaza":"Inundación fluvial, Anegamiento de zonas bajas","semaforo":"AMARILLO","prioridad":"Demo funcional","nombre":"Ficha cantonal demostrativa · Buena Fe","descripcion":"Punto generado para probar que Elementos operativos se filtre por cantón/provincia seleccionado. No reemplaza puntos reales de Kobo.","accion_requerida":"Reemplazar con geopoint/geotrace/geoshape reales desde Kobo, PDF o ArcGIS Online.","responsable":"CZ5 / GAD · pendiente de validación","estado":"Demo · pendiente de carga real","fuente":"Demo funcional v0.5.11"}},{"type":"Feature","geometry":{"type":"Point","coordinates":[-79.28289029734998,-0.7690798566618557]},"properties":{"id_elemento":"DEMO_CANTON_1211_FICHA","provincia":"Los Ríos","canton":"Valencia","codigo_dpa":"1211","categoria_id":"MONITOREO","categoria":"Ficha cantonal demo","subcategoria":"Punto de lectura territorial","componente":"Monitoreo","amenaza":"Inundación fluvial, Anegamiento de zonas bajas","semaforo":"VERDE","prioridad":"Demo funcional","nombre":"Ficha cantonal demostrativa · Valencia","descripcion":"Punto generado para probar que Elementos operativos se filtre por cantón/provincia seleccionado. No reemplaza puntos reales de Kobo.","accion_requerida":"Reemplazar con geopoint/geotrace/geoshape reales desde Kobo, PDF o ArcGIS Online.","responsable":"CZ5 / GAD · pendiente de validación","estado":"Demo · pendiente de carga real","fuente":"Demo funcional v0.5.11"}},{"type":"Feature","geometry":{"type":"Point","coordinates":[-79.5728934912681,-1.1978911006349608]},"properties":{"id_elemento":"DEMO_CANTON_1212_FICHA","provincia":"Los Ríos","canton":"Mocache","codigo_dpa":"1212","categoria_id":"MONITOREO","categoria":"Ficha cantonal demo","subcategoria":"Punto de lectura territorial","componente":"Monitoreo","amenaza":"Inundación fluvial, Anegamiento de zonas bajas","semaforo":"ROJO","prioridad":"Demo funcional","nombre":"Ficha cantonal demostrativa · Mocache","descripcion":"Punto generado para probar que Elementos operativos se filtre por cantón/provincia seleccionado. No reemplaza puntos reales de Kobo.","accion_requerida":"Reemplazar con geopoint/geotrace/geoshape reales desde Kobo, PDF o ArcGIS Online.","responsable":"CZ5 / GAD · pendiente de validación","estado":"Demo · pendiente de carga real","fuente":"Demo funcional v0.5.11"}},{"type":"Feature","geometry":{"type":"Point","coordinates":[-79.3566561339186,-1.145858321595107]},"properties":{"id_elemento":"DEMO_CANTON_1213_FICHA","provincia":"Los Ríos","canton":"Quinsaloma","codigo_dpa":"1213","categoria_id":"MONITOREO","categoria":"Ficha cantonal demo","subcategoria":"Punto de lectura territorial","componente":"Monitoreo","amenaza":"Inundación fluvial, Anegamiento de zonas bajas","semaforo":"AMARILLO","prioridad":"Demo funcional","nombre":"Ficha cantonal demostrativa · Quinsaloma","descripcion":"Punto generado para probar que Elementos operativos se filtre por cantón/provincia seleccionado. No reemplaza puntos reales de Kobo.","accion_requerida":"Reemplazar con geopoint/geotrace/geoshape reales desde Kobo, PDF o ArcGIS Online.","responsable":"CZ5 / GAD · pendiente de validación","estado":"Demo · pendiente de carga real","fuente":"Demo funcional v0.5.11"}},{"type":"Feature","geometry":{"type":"Point","coordinates":[-89.87619767363013,-0.5323143286126598]},"properties":{"id_elemento":"DEMO_CANTON_2001_FICHA","provincia":"Galápagos","canton":"San Cristobal","codigo_dpa":"2001","categoria_id":"MONITOREO","categoria":"Ficha cantonal demo","subcategoria":"Punto de lectura territorial","componente":"Monitoreo","amenaza":"Aislamiento logístico, Evento hidrometeorológico","semaforo":"ROJO","prioridad":"Demo funcional","nombre":"Ficha cantonal demostrativa · San Cristobal","descripcion":"Punto generado para probar que Elementos operativos se filtre por cantón/provincia seleccionado. No reemplaza puntos reales de Kobo.","accion_requerida":"Reemplazar con geopoint/geotrace/geoshape reales desde Kobo, PDF o ArcGIS Online.","responsable":"CZ5 / GAD · pendiente de validación","estado":"Demo · pendiente de carga real","fuente":"Demo funcional v0.5.11"}},{"type":"Feature","geometry":{"type":"Point","coordinates":[-91.39474101500616,0.31363500486796125]},"properties":{"id_elemento":"DEMO_CANTON_2002_FICHA","provincia":"Galápagos","canton":"Isabela","codigo_dpa":"2002","categoria_id":"MONITOREO","categoria":"Ficha cantonal demo","subcategoria":"Punto de lectura territorial","componente":"Monitoreo","amenaza":"Aislamiento logístico, Evento hidrometeorológico","semaforo":"AMARILLO","prioridad":"Demo funcional","nombre":"Ficha cantonal demostrativa · Isabela","descripcion":"Punto generado para probar que Elementos operativos se filtre por cantón/provincia seleccionado. No reemplaza puntos reales de Kobo.","accion_requerida":"Reemplazar con geopoint/geotrace/geoshape reales desde Kobo, PDF o ArcGIS Online.","responsable":"CZ5 / GAD · pendiente de validación","estado":"Demo · pendiente de carga real","fuente":"Demo funcional v0.5.11"}},{"type":"Feature","geometry":{"type":"Point","coordinates":[-90.50678077514334,-0.06566828239966743]},"properties":{"id_elemento":"DEMO_CANTON_2003_FICHA","provincia":"Galápagos","canton":"Santa Cruz","codigo_dpa":"2003","categoria_id":"MONITOREO","categoria":"Ficha cantonal demo","subcategoria":"Punto de lectura territorial","componente":"Monitoreo","amenaza":"Aislamiento logístico, Evento hidrometeorológico","semaforo":"VERDE","prioridad":"Demo funcional","nombre":"Ficha cantonal demostrativa · Santa Cruz","descripcion":"Punto generado para probar que Elementos operativos se filtre por cantón/provincia seleccionado. No reemplaza puntos reales de Kobo.","accion_requerida":"Reemplazar con geopoint/geotrace/geoshape reales desde Kobo, PDF o ArcGIS Online.","responsable":"CZ5 / GAD · pendiente de validación","estado":"Demo · pendiente de carga real","fuente":"Demo funcional v0.5.11"}},{"type":"Feature","geometry":{"type":"Point","coordinates":[-80.54229111392482,-2.087126841117639]},"properties":{"id_elemento":"DEMO_CANTON_2401_FICHA","provincia":"Santa Elena","canton":"Santa Elena","codigo_dpa":"2401","categoria_id":"MONITOREO","categoria":"Ficha cantonal demo","subcategoria":"Punto de lectura territorial","componente":"Monitoreo","amenaza":"Escorrentía superficial, Afectación vial","semaforo":"AMARILLO","prioridad":"Demo funcional","nombre":"Ficha cantonal demostrativa · Santa Elena","descripcion":"Punto generado para probar que Elementos operativos se filtre por cantón/provincia seleccionado. No reemplaza puntos reales de Kobo.","accion_requerida":"Reemplazar con geopoint/geotrace/geoshape reales desde Kobo, PDF o ArcGIS Online.","responsable":"CZ5 / GAD · pendiente de validación","estado":"Demo · pendiente de carga real","fuente":"Demo funcional v0.5.11"}},{"type":"Feature","geometry":{"type":"Point","coordinates":[-80.89510033686076,-2.239798009413792]},"properties":{"id_elemento":"DEMO_CANTON_2402_FICHA","provincia":"Santa Elena","canton":"La Libertad","codigo_dpa":"2402","categoria_id":"MONITOREO","categoria":"Ficha cantonal demo","subcategoria":"Punto de lectura territorial","componente":"Monitoreo","amenaza":"Escorrentía superficial, Afectación vial","semaforo":"VERDE","prioridad":"Demo funcional","nombre":"Ficha cantonal demostrativa · La Libertad","descripcion":"Punto generado para probar que Elementos operativos se filtre por cantón/provincia seleccionado. No reemplaza puntos reales de Kobo.","accion_requerida":"Reemplazar con geopoint/geotrace/geoshape reales desde Kobo, PDF o ArcGIS Online.","responsable":"CZ5 / GAD · pendiente de validación","estado":"Demo · pendiente de carga real","fuente":"Demo funcional v0.5.11"}},{"type":"Feature","geometry":{"type":"Point","coordinates":[-80.9348166062106,-2.2596797157416075]},"properties":{"id_elemento":"DEMO_CANTON_2403_FICHA","provincia":"Santa Elena","canton":"Salinas","codigo_dpa":"2403","categoria_id":"MONITOREO","categoria":"Ficha cantonal demo","subcategoria":"Punto de lectura territorial","componente":"Monitoreo","amenaza":"Escorrentía superficial, Afectación vial","semaforo":"ROJO","prioridad":"Demo funcional","nombre":"Ficha cantonal demostrativa · Salinas","descripcion":"Punto generado para probar que Elementos operativos se filtre por cantón/provincia seleccionado. No reemplaza puntos reales de Kobo.","accion_requerida":"Reemplazar con geopoint/geotrace/geoshape reales desde Kobo, PDF o ArcGIS Online.","responsable":"CZ5 / GAD · pendiente de validación","estado":"Demo · pendiente de carga real","fuente":"Demo funcional v0.5.11"}}]}